{
    "links": {
        "self": "http://www.neowsapp.com/rest/v1/neo/3552667?api_key=iIulBulltgU6a56xZRHN4H3l9WmuAYTsLGpBGhQ2"
    },
    "id": "3552667",
    "neo_reference_id": "3552667",
    "name": "(2010 XA)",
    "designation": "2010 XA",
    "nasa_jpl_url": "http://ssd.jpl.nasa.gov/sbdb.cgi?sstr=3552667",
    "absolute_magnitude_h": 25.4,
    "estimated_diameter": {
        "kilometers": {
            "estimated_diameter_min": 0.022108281,
            "estimated_diameter_max": 0.0494356193
        },
        "meters": {
            "estimated_diameter_min": 22.1082810359,
            "estimated_diameter_max": 49.435619262
        },
        "miles": {
            "estimated_diameter_min": 0.0137374447,
            "estimated_diameter_max": 0.0307178602
        },
        "feet": {
            "estimated_diameter_min": 72.5337327539,
            "estimated_diameter_max": 162.1903570994
        }
    },
    "is_potentially_hazardous_asteroid": false,
    "close_approach_data": [
        {
            "close_approach_date": "2010-11-27",
            "close_approach_date_full": "2010-Nov-27 11:16",
            "epoch_date_close_approach": 1290856560000,
            "relative_velocity": {
                "kilometers_per_second": "6.9813480895",
                "kilometers_per_hour": "25132.8531220785",
                "miles_per_hour": "15616.5775413271"
            },
            "miss_distance": {
                "astronomical": "0.0603446182",
                "lunar": "23.4740564798",
                "kilometers": "9027426.348683234",
                "miles": "5609382.6225432692"
            },
            "orbiting_body": "Earth"
        }
    ],
    "orbital_data": {
        "orbit_id": "10",
        "orbit_determination_date": "2017-04-06 08:55:31",
        "first_observation_date": "2010-12-01",
        "last_observation_date": "2010-12-11",
        "data_arc_in_days": 10,
        "observations_used": 34,
        "orbit_uncertainty": "8",
        "minimum_orbit_intersection": ".0540593",
        "jupiter_tisserand_invariant": "3.245",
        "epoch_osculation": "2455533.5",
        "eccentricity": ".5747793387634986",
        "semi_major_axis": "2.45001832142633",
        "inclination": "3.005932868640672",
        "ascending_node_longitude": "244.5613557651394",
        "orbital_period": "1400.723532501753",
        "perihelion_distance": "1.041798410678447",
        "perihelion_argument": "173.6323934869561",
        "aphelion_distance": "3.858238232174212",
        "perihelion_time": "2455523.139506282743",
        "mean_anomaly": "2.662750822463143",
        "mean_motion": ".2570100320632327",
        "equinox": "J2000",
        "orbit_class": {
            "orbit_class_type": "AMO",
            "orbit_class_description": "Near-Earth asteroid orbits similar to that of 1221 Amor",
            "orbit_class_range": "1.017 AU < q (perihelion) < 1.3 AU"
        }
    },
    "is_sentry_object": false
}